{
    "links": {
        "self": "http://www.neowsapp.com/rest/v1/neo/3363695?api_key=iIulBulltgU6a56xZRHN4H3l9WmuAYTsLGpBGhQ2"
    },
    "id": "3363695",
    "neo_reference_id": "3363695",
    "name": "(2006 XN4)",
    "designation": "2006 XN4",
    "nasa_jpl_url": "http://ssd.jpl.nasa.gov/sbdb.cgi?sstr=3363695",
    "absolute_magnitude_h": 24.0,
    "estimated_diameter": {
        "kilometers": {
            "estimated_diameter_min": 0.0421264611,
            "estimated_diameter_max": 0.0941976306
        },
        "meters": {
            "estimated_diameter_min": 42.1264610556,
            "estimated_diameter_max": 94.1976305719
        },
        "miles": {
            "estimated_diameter_min": 0.0261761612,
            "estimated_diameter_max": 0.0585316759
        },
        "feet": {
            "estimated_diameter_min": 138.2101784897,
            "estimated_diameter_max": 309.0473542854
        }
    },
    "is_potentially_hazardous_asteroid": false,
    "close_approach_data": [
        {
            "close_approach_date": "2006-12-14",
            "close_approach_date_full": "2006-Dec-14 04:58",
            "epoch_date_close_approach": 1166072280000,
            "relative_velocity": {
                "kilometers_per_second": "8.4604633263",
                "kilometers_per_hour": "30457.6679746509",
                "miles_per_hour": "18925.2104145824"
            },
            "miss_distance": {
                "astronomical": "0.0378159337",
                "lunar": "14.7103982093",
                "kilometers": "5657183.133581219",
                "miles": "3515210.5967260622"
            },
            "orbiting_body": "Earth"
        }
    ],
    "orbital_data": {
        "orbit_id": "11",
        "orbit_determination_date": "2017-04-06 09:07:21",
        "first_observation_date": "2006-12-14",
        "last_observation_date": "2006-12-24",
        "data_arc_in_days": 10,
        "observations_used": 44,
        "orbit_uncertainty": "8",
        "minimum_orbit_intersection": ".0350868",
        "jupiter_tisserand_invariant": "3.109",
        "epoch_osculation": "2454089.5",
        "eccentricity": ".6107604576616569",
        "semi_major_axis": "2.607761528690831",
        "inclination": "6.676786828463932",
        "ascending_node_longitude": "260.4009674333268",
        "orbital_period": "1538.155483082759",
        "perihelion_distance": "1.015043903955157",
        "perihelion_argument": "191.714041066314",
        "aphelion_distance": "4.200479153426506",
        "perihelion_time": "2454091.526643281457",
        "mean_anomaly": "359.525671111049",
        "mean_motion": ".2340465602856292",
        "equinox": "J2000",
        "orbit_class": {
            "orbit_class_type": "APO",
            "orbit_class_description": "Near-Earth asteroid orbits which cross the Earth’s orbit similar to that of 1862 Apollo",
            "orbit_class_range": "a (semi-major axis) > 1.0 AU; q (perihelion) < 1.017 AU"
        }
    },
    "is_sentry_object": false
}